start=new Date('2022-02-25T00:00:00.000Z').valueOf();
sats=[{"PERIOD":"95.593","SITE":"AFETR","FILE":"3320325","PERIAPSIS":"546.099","BSTAR":"0.00007615600000","CENTER_NAME":"EARTH","CLASSIFICATION_TYPE":"U","COUNTRY_CODE":"US","APOAPSIS":"548.387","OBJECT_TYPE":"PAYLOAD","OBJECT_NAME":"STARLINK-1117","DECAY_DATE":null,"SEMIMAJOR_AXIS":"6925.378","INCLINATION":"53.0543","NORAD_CAT_ID":"44952","ELEMENT_SET_NO":"999","LAUNCH_DATE":"2020-01-07","MEAN_ELEMENT_THEORY":"SGP4","ECCENTRICITY":"0.00016520","RA_OF_ASC_NODE":"103.8651","MEAN_ANOMALY":"307.6843","REV_AT_EPOCH":"11795","TIME_SYSTEM":"UTC","TLE_LINE2":"2 44952  53.0543 103.8651 0001652  52.4296 307.6843 15.06390487117959","MEAN_MOTION_DDOT":"0.0000000000000","REF_FRAME":"TEME","OBJECT_ID":"2020-001AQ","ARG_OF_PERICENTER":"52.4296","MEAN_MOTION_DOT":"0.00000853","EPOCH":"2022-02-24T15:27:54.343872","TLE_LINE1":"1 44952U 20001AQ  22055.64437898  .00000853  00000-0  76156-4 0  9995","MEAN_MOTION":"15.06390487","RCS_SIZE":"LARGE","EPHEMERIS_TYPE":"0","GP_ID":"196898899"},{"MEAN_ANOMALY":"297.0545","RA_OF_ASC_NODE":"104.9745","ECCENTRICITY":"0.00016120","MEAN_ELEMENT_THEORY":"SGP4","LAUNCH_DATE":"2020-01-07","ELEMENT_SET_NO":"999","INCLINATION":"53.0530","NORAD_CAT_ID":"44953","GP_ID":"196839964","EPHEMERIS_TYPE":"0","TLE_LINE1":"1 44953U 20001AR  22055.39647447 -.00001052  00000-0 -51699-4 0  9990","RCS_SIZE":"LARGE","MEAN_MOTION":"15.06405895","EPOCH":"2022-02-24T09:30:55.394208","MEAN_MOTION_DOT":"-0.00001052","TLE_LINE2":"2 44953  53.0530 104.9745 0001612  63.0608 297.0545 15.06405895119204","REF_FRAME":"TEME","MEAN_MOTION_DDOT":"0.0000000000000","OBJECT_ID":"2020-001AR","ARG_OF_PERICENTER":"63.0608","TIME_SYSTEM":"UTC","REV_AT_EPOCH":"11920","CENTER_NAME":"EARTH","CLASSIFICATION_TYPE":"U","BSTAR":"-0.00005169900000","FILE":"3318573","PERIAPSIS":"546.079","SITE":"AFETR","PERIOD":"95.592","SEMIMAJOR_AXIS":"6925.330","DECAY_DATE":null,"OBJECT_NAME":"STARLINK-1124","OBJECT_TYPE":"PAYLOAD","APOAPSIS":"548.312","COUNTRY_CODE":"US"},{"SEMIMAJOR_AXIS":"6925.384","DECAY_DATE":null,"OBJECT_NAME":"STARLINK-1066","OBJECT_TYPE":"PAYLOAD","APOAPSIS":"548.445","COUNTRY_CODE":"US","CLASSIFICATION_TYPE":"U","CENTER_NAME":"EARTH","BSTAR":"0.00014936000000","FILE":"3318573","PERIAPSIS":"546.053","SITE":"AFETR","PERIOD":"95.593","GP_ID":"196838213","EPHEMERIS_TYPE":"0","TLE_LINE1":"1 44954U 20001AS  22055.47667043  .00001943  00000-0  14936-3 0  9993","RCS_SIZE":"LARGE","MEAN_MOTION":"15.06388456","EPOCH":"2022-02-24T11:26:24.325152","MEAN_MOTION_DOT":"0.00001943","TLE_LINE2":"2 44954  53.0534  84.6091 0001727  54.2285 305.8864 15.06388456118155","OBJECT_ID":"2020-001AS","MEAN_MOTION_DDOT":"0.0000000000000","REF_FRAME":"TEME","ARG_OF_PERICENTER":"54.2285","TIME_SYSTEM":"UTC","REV_AT_EPOCH":"11815","MEAN_ANOMALY":"305.8864","RA_OF_ASC_NODE":"84.6091","ECCENTRICITY":"0.00017270","MEAN_ELEMENT_THEORY":"SGP4","LAUNCH_DATE":"2020-01-07","ELEMENT_SET_NO":"999","INCLINATION":"53.0534","NORAD_CAT_ID":"44954"},{"RA_OF_ASC_NODE":"84.3024","ECCENTRICITY":"0.00017110","MEAN_ANOMALY":"302.0154","LAUNCH_DATE":"2020-01-07","NORAD_CAT_ID":"44955","INCLINATION":"53.0545","ELEMENT_SET_NO":"999","MEAN_ELEMENT_THEORY":"SGP4","GP_ID":"196898649","TLE_LINE1":"1 44955U 20001AT  22055.55039154  .00001322  00000-0  10767-3 0  9998","MEAN_MOTION":"15.06395030","RCS_SIZE":"LARGE","EPHEMERIS_TYPE":"0","MEAN_MOTION_DDOT":"0.0000000000000","TLE_LINE2":"2 44955  53.0545  84.3024 0001711  58.1001 302.0154 15.06395030118161","ARG_OF_PERICENTER":"58.1001","OBJECT_ID":"2020-001AT","REF_FRAME":"TEME","REV_AT_EPOCH":"11816","TIME_SYSTEM":"UTC","MEAN_MOTION_DOT":"0.00001322","EPOCH":"2022-02-24T13:12:33.829056","BSTAR":"0.00010767000000","CLASSIFICATION_TYPE":"U","CENTER_NAME":"EARTH","SITE":"AFETR","PERIOD":"95.592","PERIAPSIS":"546.044","FILE":"3320325","OBJECT_NAME":"STARLINK-1069","SEMIMAJOR_AXIS":"6925.364","DECAY_DATE":null,"COUNTRY_CODE":"US","APOAPSIS":"548.414","OBJECT_TYPE":"PAYLOAD"},{"LAUNCH_DATE":"2020-01-07","NORAD_CAT_ID":"44956","INCLINATION":"53.0537","ELEMENT_SET_NO":"999","MEAN_ELEMENT_THEORY":"SGP4","RA_OF_ASC_NODE":"84.3100","ECCENTRICITY":"0.00015350","MEAN_ANOMALY":"287.8090","TLE_LINE2":"2 44956  53.0537  84.3100 0001535  72.3067 287.8090 15.06396400118220","MEAN_MOTION_DDOT":"0.0000000000000","REF_FRAME":"TEME","OBJECT_ID":"2020-001AU","ARG_OF_PERICENTER":"72.3067","REV_AT_EPOCH":"11822","TIME_SYSTEM":"UTC","MEAN_MOTION_DOT":"0.00000661","EPOCH":"2022-02-24T13:07:15.146976","GP_ID":"196899399","TLE_LINE1":"1 44956U 20001AU  22055.54670309  .00000661  00000-0  63302-4 0  9990","RCS_SIZE":"LARGE","MEAN_MOTION":"15.06396400","EPHEMERIS_TYPE":"0","SITE":"AFETR","PERIOD":"95.592","PERIAPSIS":"546.162","FILE":"3320325","BSTAR":"0.00006330200000","CENTER_NAME":"EARTH","CLASSIFICATION_TYPE":"U","COUNTRY_CODE":"US","APOAPSIS":"548.288","OBJECT_TYPE":"PAYLOAD","OBJECT_NAME":"STARLINK-1070","SEMIMAJOR_AXIS":"6925.360","DECAY_DATE":null},{"GP_ID":"196899651","TLE_LINE1":"1 44957U 20001AV  22055.77153687  .00001118  00000-0  93964-4 0  9996","MEAN_MOTION":"15.06394451","RCS_SIZE":"LARGE","EPHEMERIS_TYPE":"0","MEAN_MOTION_DOT":"0.00001118","EPOCH":"2022-02-24T18:31:00.785568","MEAN_MOTION_DDOT":"0.0000000000000","TLE_LINE2":"2 44957  53.0550  83.3055 0001440  72.8485 287.2661 15.06394451118253","ARG_OF_PERICENTER":"72.8485","REF_FRAME":"TEME","OBJECT_ID":"2020-001AV","REV_AT_EPOCH":"11825","TIME_SYSTEM":"UTC","MEAN_ANOMALY":"287.2661","RA_OF_ASC_NODE":"83.3055","ECCENTRICITY":"0.00014400","MEAN_ELEMENT_THEORY":"SGP4","LAUNCH_DATE":"2020-01-07","INCLINATION":"53.0550","NORAD_CAT_ID":"44957","ELEMENT_SET_NO":"999","SEMIMAJOR_AXIS":"6925.366","DECAY_DATE":null,"OBJECT_NAME":"STARLINK-1074","APOAPSIS":"548.228","OBJECT_TYPE":"PAYLOAD","COUNTRY_CODE":"US","CENTER_NAME":"EARTH","CLASSIFICATION_TYPE":"U","BSTAR":"0.00009396400000","FILE":"3320325","PERIAPSIS":"546.233","SITE":"AFETR","PERIOD":"95.592"},{"OBJECT_NAME":"STARLINK-1076","SEMIMAJOR_AXIS":"6925.357","DECAY_DATE":null,"COUNTRY_CODE":"US","APOAPSIS":"548.443","OBJECT_TYPE":"PAYLOAD","BSTAR":"0.00004105000000","CLASSIFICATION_TYPE":"U","CENTER_NAME":"EARTH","SITE":"AFETR","PERIOD":"95.592","FILE":"3320325","PERIAPSIS":"546.002","GP_ID":"196900401","TLE_LINE1":"1 44959U 20001AX  22055.78628418  .00000330  00000-0  41050-4 0  9992","MEAN_MOTION":"15.06397083","RCS_SIZE":"LARGE","EPHEMERIS_TYPE":"0","MEAN_MOTION_DDOT":"0.0000000000000","TLE_LINE2":"2 44959  53.0532  83.2307 0001762  54.1806 305.9346 15.06397083118253","REF_FRAME":"TEME","OBJECT_ID":"2020-001AX","ARG_OF_PERICENTER":"54.1806","REV_AT_EPOCH":"11825","TIME_SYSTEM":"UTC","MEAN_MOTION_DOT":"0.00000330","EPOCH":"2022-02-24T18:52:14.953152","RA_OF_ASC_NODE":"83.2307","ECCENTRICITY":"0.00017620","MEAN_ANOMALY":"305.9346","LAUNCH_DATE":"2020-01-07","NORAD_CAT_ID":"44959","INCLINATION":"53.0532","ELEMENT_SET_NO":"999","MEAN_ELEMENT_THEORY":"SGP4"},{"BSTAR":"0.00014982000000","CENTER_NAME":"EARTH","CLASSIFICATION_TYPE":"U","PERIOD":"95.592","SITE":"AFETR","FILE":"3320325","PERIAPSIS":"546.095","OBJECT_NAME":"STARLINK-1080","DECAY_DATE":null,"SEMIMAJOR_AXIS":"6925.353","COUNTRY_CODE":"US","APOAPSIS":"548.341","OBJECT_TYPE":"PAYLOAD","ECCENTRICITY":"0.00016210","RA_OF_ASC_NODE":"83.2009","MEAN_ANOMALY":"289.7196","INCLINATION":"53.0544","NORAD_CAT_ID":"44961","ELEMENT_SET_NO":"999","LAUNCH_DATE":"2020-01-07","MEAN_ELEMENT_THEORY":"SGP4","TLE_LINE1":"1 44961U 20001AZ  22055.79365201  .00001951  00000-0  14982-3 0  9997","RCS_SIZE":"LARGE","MEAN_MOTION":"15.06398543","EPHEMERIS_TYPE":"0","GP_ID":"196899149","REV_AT_EPOCH":"11826","TIME_SYSTEM":"UTC","MEAN_MOTION_DDOT":"0.0000000000000","TLE_LINE2":"2 44961  53.0544  83.2009 0001621  70.3968 289.7196 15.06398543118266","OBJECT_ID":"2020-001AZ","REF_FRAME":"TEME","ARG_OF_PERICENTER":"70.3968","MEAN_MOTION_DOT":"0.00001951","EPOCH":"2022-02-24T19:02:51.533664"},{"OBJECT_NAME":"STARLINK-1085","DECAY_DATE":null,"SEMIMAJOR_AXIS":"6912.912","COUNTRY_CODE":"US","APOAPSIS":"536.417","OBJECT_TYPE":"PAYLOAD","BSTAR":"0.00081726000000","CENTER_NAME":"EARTH","CLASSIFICATION_TYPE":"U","PERIOD":"95.335","SITE":"AFETR","PERIAPSIS":"533.136","FILE":"3318573","RCS_SIZE":"LARGE","TLE_LINE1":"1 44963U 20001BB  22055.47410785  .00013336  00000-0  81726-3 0  9992","MEAN_MOTION":"15.10466966","EPHEMERIS_TYPE":"0","GP_ID":"196839716","REV_AT_EPOCH":"11901","TIME_SYSTEM":"UTC","TLE_LINE2":"2 44963  52.9991  77.9419 0002373  72.4922 287.6327 15.10466966119012","REF_FRAME":"TEME","MEAN_MOTION_DDOT":"0.0000000000000","OBJECT_ID":"2020-001BB","ARG_OF_PERICENTER":"72.4922","MEAN_MOTION_DOT":"0.00013336","EPOCH":"2022-02-24T11:22:42.918240","ECCENTRICITY":"0.00023730","RA_OF_ASC_NODE":"77.9419","MEAN_ANOMALY":"287.6327","NORAD_CAT_ID":"44963","INCLINATION":"52.9991","ELEMENT_SET_NO":"999","LAUNCH_DATE":"2020-01-07","MEAN_ELEMENT_THEORY":"SGP4"},{"ECCENTRICITY":"0.00014540","RA_OF_ASC_NODE":"84.5473","MEAN_ANOMALY":"286.9291","NORAD_CAT_ID":"44964","INCLINATION":"53.0536","ELEMENT_SET_NO":"999","LAUNCH_DATE":"2020-01-07","MEAN_ELEMENT_THEORY":"SGP4","MEAN_MOTION":"15.06394597","TLE_LINE1":"1 44964U 20001BC  22055.49140414  .00000985  00000-0  85027-4 0  9999","RCS_SIZE":"LARGE","EPHEMERIS_TYPE":"0","GP_ID":"196839965","REV_AT_EPOCH":"11821","TIME_SYSTEM":"UTC","MEAN_MOTION_DDOT":"0.0000000000000","TLE_LINE2":"2 44964  53.0536  84.5473 0001454  73.1857 286.9291 15.06394597118216","ARG_OF_PERICENTER":"73.1857","OBJECT_ID":"2020-001BC","REF_FRAME":"TEME","MEAN_MOTION_DOT":"0.00000985","EPOCH":"2022-02-24T11:47:37.317696","BSTAR":"0.00008502700000","CENTER_NAME":"EARTH","CLASSIFICATION_TYPE":"U","PERIOD":"95.592","SITE":"AFETR","FILE":"3318573","PERIAPSIS":"546.223","OBJECT_NAME":"STARLINK-1086","DECAY_DATE":null,"SEMIMAJOR_AXIS":"6925.365","COUNTRY_CODE":"US","APOAPSIS":"548.237","OBJECT_TYPE":"PAYLOAD"}];
